start=new Date('2022-06-18T00:00:00.000Z').valueOf();
sats=[{"OBJECT_ID":"2020-074AX","CENTER_NAME":"EARTH","REV_AT_EPOCH":"9137","MEAN_ANOMALY":"270.6604","EPHEMERIS_TYPE":"0","DECAY_DATE":null,"MEAN_MOTION":"15.06407313","PERIAPSIS":"545.812","MEAN_MOTION_DOT":"-0.00002820","SEMIMAJOR_AXIS":"6925.326","REF_FRAME":"TEME","RA_OF_ASC_NODE":"310.4239","ELEMENT_SET_NO":"999","COUNTRY_CODE":"US","EPOCH":"2022-06-15T16:11:19.381632","TIME_SYSTEM":"UTC","PERIOD":"95.592","TLE_LINE2":"2 46784  53.0537 310.4239 0001991  89.4613 270.6604 15.06407313 91372","ECCENTRICITY":"0.00019910","ARG_OF_PERICENTER":"89.4613","LAUNCH_DATE":"2020-10-24","INCLINATION":"53.0537","FILE":"3496999","NORAD_CAT_ID":"46784","TLE_LINE1":"1 46784U 20074AX  22166.67452988 -.00002820  00000-0 -17043-3 0  9990","RCS_SIZE":"LARGE","BSTAR":"-0.00017043000000","CLASSIFICATION_TYPE":"U","OBJECT_TYPE":"PAYLOAD","MEAN_MOTION_DDOT":"0.0000000000000","MEAN_ELEMENT_THEORY":"SGP4","APOAPSIS":"548.570","GP_ID":"206237807","SITE":"AFETR","OBJECT_NAME":"STARLINK-1882"},{"OBJECT_ID":"2020-074AY","CENTER_NAME":"EARTH","REV_AT_EPOCH":"9137","MEAN_ANOMALY":"283.1147","PERIAPSIS":"546.157","MEAN_MOTION_DOT":"-0.00001187","MEAN_MOTION":"15.06388070","EPHEMERIS_TYPE":"0","DECAY_DATE":null,"SEMIMAJOR_AXIS":"6925.385","REF_FRAME":"TEME","RA_OF_ASC_NODE":"310.4935","COUNTRY_CODE":"US","EPOCH":"2022-06-15T15:51:26.500032","ELEMENT_SET_NO":"999","TLE_LINE2":"2 46785  53.0520 310.4935 0001579  77.0018 283.1147 15.06388070 91371","PERIOD":"95.593","ARG_OF_PERICENTER":"77.0018","ECCENTRICITY":"0.00015790","TIME_SYSTEM":"UTC","LAUNCH_DATE":"2020-10-24","FILE":"3496999","INCLINATION":"53.0520","TLE_LINE1":"1 46785U 20074AY  22166.66072338 -.00001187  00000-0 -60845-4 0  9991","NORAD_CAT_ID":"46785","RCS_SIZE":"LARGE","BSTAR":"-0.00006084500000","CLASSIFICATION_TYPE":"U","OBJECT_TYPE":"PAYLOAD","MEAN_ELEMENT_THEORY":"SGP4","MEAN_MOTION_DDOT":"0.0000000000000","APOAPSIS":"548.344","SITE":"AFETR","GP_ID":"206236555","OBJECT_NAME":"STARLINK-1883"},{"OBJECT_NAME":"STARLINK-1893","SITE":"AFETR","GP_ID":"206288559","APOAPSIS":"548.137","MEAN_ELEMENT_THEORY":"SGP4","MEAN_MOTION_DDOT":"0.0000000000000","OBJECT_TYPE":"PAYLOAD","CLASSIFICATION_TYPE":"U","BSTAR":"0.00000888480000","RCS_SIZE":"LARGE","TLE_LINE1":"1 46786U 20074AZ  22167.03852405 -.00000149  00000-0  88848-5 0  9995","NORAD_CAT_ID":"46786","FILE":"3497002","INCLINATION":"53.0563","LAUNCH_DATE":"2020-10-24","PERIOD":"95.592","TLE_LINE2":"2 46786  53.0563 288.8052 0001323  82.3530 277.7609 15.06397614 91716","ARG_OF_PERICENTER":"82.3530","ECCENTRICITY":"0.00013230","TIME_SYSTEM":"UTC","EPOCH":"2022-06-16T00:55:28.477920","COUNTRY_CODE":"US","ELEMENT_SET_NO":"999","RA_OF_ASC_NODE":"288.8052","REF_FRAME":"TEME","SEMIMAJOR_AXIS":"6925.356","PERIAPSIS":"546.305","MEAN_MOTION_DOT":"-0.00000149","MEAN_MOTION":"15.06397614","DECAY_DATE":null,"EPHEMERIS_TYPE":"0","MEAN_ANOMALY":"277.7609","REV_AT_EPOCH":"9171","CENTER_NAME":"EARTH","OBJECT_ID":"2020-074AZ"},{"REF_FRAME":"TEME","SEMIMAJOR_AXIS":"6925.320","DECAY_DATE":null,"EPHEMERIS_TYPE":"0","PERIAPSIS":"546.300","MEAN_MOTION":"15.06409341","MEAN_MOTION_DOT":"-0.00000660","MEAN_ANOMALY":"279.1287","REV_AT_EPOCH":"9171","CENTER_NAME":"EARTH","OBJECT_ID":"2020-074BA","INCLINATION":"53.0561","FILE":"3497002","LAUNCH_DATE":"2020-10-24","TIME_SYSTEM":"UTC","TLE_LINE2":"2 46787  53.0561 288.8248 0001278  80.9846 279.1287 15.06409341 91714","ARG_OF_PERICENTER":"80.9846","PERIOD":"95.592","ECCENTRICITY":"0.00012780","ELEMENT_SET_NO":"999","EPOCH":"2022-06-16T00:44:50.639424","COUNTRY_CODE":"US","RA_OF_ASC_NODE":"288.8248","BSTAR":"-0.00002543400000","RCS_SIZE":"LARGE","NORAD_CAT_ID":"46787","TLE_LINE1":"1 46787U 20074BA  22167.03114166 -.00000660  00000-0 -25434-4 0  9991","OBJECT_NAME":"STARLINK-1899","GP_ID":"206288306","SITE":"AFETR","APOAPSIS":"548.070","MEAN_MOTION_DDOT":"0.0000000000000","MEAN_ELEMENT_THEORY":"SGP4","OBJECT_TYPE":"PAYLOAD","CLASSIFICATION_TYPE":"U"},{"INCLINATION":"53.0535","FILE":"3496999","LAUNCH_DATE":"2020-10-24","ELEMENT_SET_NO":"999","EPOCH":"2022-06-15T19:47:38.007744","COUNTRY_CODE":"US","RA_OF_ASC_NODE":"289.7685","TIME_SYSTEM":"UTC","TLE_LINE2":"2 46788  53.0535 289.7685 0001703  59.7885 300.3272 15.06395454 91687","PERIOD":"95.592","ARG_OF_PERICENTER":"59.7885","ECCENTRICITY":"0.00017030","DECAY_DATE":null,"EPHEMERIS_TYPE":"0","MEAN_MOTION_DOT":"-0.00000518","PERIAPSIS":"546.048","MEAN_MOTION":"15.06395454","REV_AT_EPOCH":"9168","MEAN_ANOMALY":"300.3272","REF_FRAME":"TEME","SEMIMAJOR_AXIS":"6925.362","CENTER_NAME":"EARTH","OBJECT_ID":"2020-074BB","GP_ID":"206237308","SITE":"AFETR","APOAPSIS":"548.407","OBJECT_NAME":"STARLINK-1929","OBJECT_TYPE":"PAYLOAD","CLASSIFICATION_TYPE":"U","MEAN_MOTION_DDOT":"0.0000000000000","MEAN_ELEMENT_THEORY":"SGP4","NORAD_CAT_ID":"46788","TLE_LINE1":"1 46788U 20074BB  22166.82474546 -.00000518  00000-0 -15907-4 0  9995","BSTAR":"-0.00001590700000","RCS_SIZE":"LARGE"},{"CENTER_NAME":"EARTH","OBJECT_ID":"2020-074BC","REF_FRAME":"TEME","SEMIMAJOR_AXIS":"6925.365","PERIAPSIS":"546.262","MEAN_MOTION":"15.06394503","MEAN_MOTION_DOT":"0.00009848","DECAY_DATE":null,"EPHEMERIS_TYPE":"0","REV_AT_EPOCH":"9124","MEAN_ANOMALY":"292.1097","ARG_OF_PERICENTER":"68.0041","TLE_LINE2":"2 46789  53.0547 320.4141 0001398  68.0041 292.1097 15.06394503 91247","PERIOD":"95.592","ECCENTRICITY":"0.00013980","TIME_SYSTEM":"UTC","COUNTRY_CODE":"US","EPOCH":"2022-06-15T17:09:45.580896","ELEMENT_SET_NO":"999","RA_OF_ASC_NODE":"320.4141","FILE":"3496999","INCLINATION":"53.0547","LAUNCH_DATE":"2020-10-24","BSTAR":"0.00067918000000","RCS_SIZE":"LARGE","TLE_LINE1":"1 46789U 20074BC  22166.71511089  .00009848  00000-0  67918-3 0  9999","NORAD_CAT_ID":"46789","MEAN_ELEMENT_THEORY":"SGP4","MEAN_MOTION_DDOT":"0.0000000000000","OBJECT_TYPE":"PAYLOAD","CLASSIFICATION_TYPE":"U","OBJECT_NAME":"STARLINK-1930","SITE":"AFETR","GP_ID":"206236056","APOAPSIS":"548.199"},{"TLE_LINE1":"1 46790U 20074BD  22166.54552951 -.00005741  00000-0 -36661-3 0  9996","NORAD_CAT_ID":"46790","BSTAR":"-0.00036661000000","RCS_SIZE":"LARGE","CLASSIFICATION_TYPE":"U","OBJECT_TYPE":"PAYLOAD","MEAN_ELEMENT_THEORY":"SGP4","MEAN_MOTION_DDOT":"0.0000000000000","SITE":"AFETR","GP_ID":"206214106","APOAPSIS":"548.294","OBJECT_NAME":"STARLINK-1931","CENTER_NAME":"EARTH","OBJECT_ID":"2020-074BD","PERIAPSIS":"546.010","MEAN_MOTION_DOT":"-0.00005741","MEAN_MOTION":"15.06420029","EPHEMERIS_TYPE":"0","DECAY_DATE":null,"REV_AT_EPOCH":"9089","MEAN_ANOMALY":"286.5632","REF_FRAME":"TEME","SEMIMAJOR_AXIS":"6925.287","COUNTRY_CODE":"US","EPOCH":"2022-06-15T13:05:33.749664","ELEMENT_SET_NO":"999","RA_OF_ASC_NODE":"321.0211","PERIOD":"95.591","TLE_LINE2":"2 46790  53.0564 321.0211 0001649  73.5538 286.5632 15.06420029 90899","ECCENTRICITY":"0.00016490","ARG_OF_PERICENTER":"73.5538","TIME_SYSTEM":"UTC","FILE":"3496935","INCLINATION":"53.0564","LAUNCH_DATE":"2020-10-24"},{"MEAN_ELEMENT_THEORY":"SGP4","MEAN_MOTION_DDOT":"0.0000000000000","CLASSIFICATION_TYPE":"U","OBJECT_TYPE":"PAYLOAD","OBJECT_NAME":"STARLINK-1933","APOAPSIS":"548.298","SITE":"AFETR","GP_ID":"206237557","RCS_SIZE":"LARGE","BSTAR":"0.00002218300000","TLE_LINE1":"1 46791U 20074BE  22166.69296498  .00000049  00000-0  22183-4 0  9993","NORAD_CAT_ID":"46791","TLE_LINE2":"2 46791  53.0568 320.3433 0001588  55.9457 304.1682 15.06405152 91240","PERIOD":"95.592","ARG_OF_PERICENTER":"55.9457","ECCENTRICITY":"0.00015880","TIME_SYSTEM":"UTC","RA_OF_ASC_NODE":"320.3433","EPOCH":"2022-06-15T16:37:52.174272","COUNTRY_CODE":"US","ELEMENT_SET_NO":"999","LAUNCH_DATE":"2020-10-24","FILE":"3496999","INCLINATION":"53.0568","OBJECT_ID":"2020-074BE","CENTER_NAME":"EARTH","SEMIMAJOR_AXIS":"6925.333","REF_FRAME":"TEME","MEAN_ANOMALY":"304.1682","REV_AT_EPOCH":"9124","PERIAPSIS":"546.098","MEAN_MOTION":"15.06405152","MEAN_MOTION_DOT":"0.00000049","DECAY_DATE":null,"EPHEMERIS_TYPE":"0"},{"NORAD_CAT_ID":"46792","TLE_LINE1":"1 46792U 20074BF  22166.45431198 -.00000255  00000-0  17877-5 0  9991","BSTAR":"0.00000178770000","RCS_SIZE":"LARGE","GP_ID":"206208110","SITE":"AFETR","APOAPSIS":"548.459","OBJECT_NAME":"STARLINK-1934","CLASSIFICATION_TYPE":"U","OBJECT_TYPE":"PAYLOAD","MEAN_MOTION_DDOT":"0.0000000000000","MEAN_ELEMENT_THEORY":"SGP4","EPHEMERIS_TYPE":"0","DECAY_DATE":null,"MEAN_MOTION":"15.06391019","PERIAPSIS":"546.023","MEAN_MOTION_DOT":"-0.00000255","MEAN_ANOMALY":"293.2286","REV_AT_EPOCH":"9134","REF_FRAME":"TEME","SEMIMAJOR_AXIS":"6925.376","CENTER_NAME":"EARTH","OBJECT_ID":"2020-074BF","INCLINATION":"53.0535","FILE":"3496794","LAUNCH_DATE":"2020-10-24","ELEMENT_SET_NO":"999","EPOCH":"2022-06-15T10:54:12.555072","COUNTRY_CODE":"US","RA_OF_ASC_NODE":"311.4080","TIME_SYSTEM":"UTC","PERIOD":"95.593","TLE_LINE2":"2 46792  53.0535 311.4080 0001759  66.8888 293.2286 15.06391019 91348","ECCENTRICITY":"0.00017590","ARG_OF_PERICENTER":"66.8888"},{"SEMIMAJOR_AXIS":"6925.385","REF_FRAME":"TEME","MEAN_ANOMALY":"279.9765","REV_AT_EPOCH":"9123","MEAN_MOTION":"15.06388058","PERIAPSIS":"546.155","MEAN_MOTION_DOT":"-0.00000848","DECAY_DATE":null,"EPHEMERIS_TYPE":"0","OBJECT_ID":"2020-074BG","CENTER_NAME":"EARTH","LAUNCH_DATE":"2020-10-24","FILE":"3496999","INCLINATION":"53.0566","TLE_LINE2":"2 46793  53.0566 320.4043 0001582  80.1403 279.9765 15.06388058 91238","PERIOD":"95.593","ECCENTRICITY":"0.00015820","ARG_OF_PERICENTER":"80.1403","TIME_SYSTEM":"UTC","RA_OF_ASC_NODE":"320.4043","COUNTRY_CODE":"US","EPOCH":"2022-06-15T16:21:57.929472","ELEMENT_SET_NO":"999","RCS_SIZE":"LARGE","BSTAR":"-0.00003802500000","TLE_LINE1":"1 46793U 20074BG  22166.68192048 -.00000848  00000-0 -38025-4 0  9991","NORAD_CAT_ID":"46793","OBJECT_NAME":"STARLINK-1941","APOAPSIS":"548.346","SITE":"AFETR","GP_ID":"206236556","MEAN_ELEMENT_THEORY":"SGP4","MEAN_MOTION_DDOT":"0.0000000000000","CLASSIFICATION_TYPE":"U","OBJECT_TYPE":"PAYLOAD"}];
